#dP2025  1  3 18  0  0.00000000      96 __u+U IGS20 EXT  IAC
## 2347 496800.00000000   900.00000000 60678 0.7500000000000
+   53   G01G02G03G04G05G06G07G08G09G10G11G12G13G14G15G16G17
+        G18G19G20G21G22G23G24G25G26G27G28G29G30G31G32R01R02
+        R03R04R05R07R08R09R11R12R14R15R16R17R18R19R20R21R22
+        R24R26  0  0  0  0  0  0  0  0  0  0  0  0  0  0  0
+          0  0  0  0  0  0  0  0  0  0  0  0  0  0  0  0  0
++         9  7  8  7  7  8  6  8  7  6  8  6  7  7  7  6  7
++         8  7  7  7  7  8  8  7  7  7  7  7  7  7  6  9  8
++         7  8  9 10  7  8  7  8  7  6  8  7  8 10 10  9  8
++         8  8  0  0  0  0  0  0  0  0  0  0  0  0  0  0  0
++         0  0  0  0  0  0  0  0  0  0  0  0  0  0  0  0  0
%c M  cc GPS ccc cccc cccc cccc cccc ccccc ccccc ccccc ccccc
%c cc cc ccc ccc cccc cccc cccc cccc ccccc ccccc ccccc ccccc
%f  0.0000000  0.000000000  0.00000000000  0.000000000000000
%f  0.0000000  0.000000000  0.00000000000  0.000000000000000
%i    0    0    0    0      0      0      0      0         0
%i    0    0    0    0      0      0      0      0         0
/* IAC                                ULTRA-RAPID PREDICTION
/* S/V CLOCKS ARE ALIGNED TO GNSS TIME                      
/* G:C1WC2W R:C1PC2P E:C1XC5X C:C2IC6I J:C1CC2S             
/* PCV:IGS20_2317 OL/AL:FES2004  NONE     YN ORB:CoN CLK:CoN
*  2025 01 03 18  0  0.00000000
PG01   3848.057543 -16375.128440 -20548.196323     17.165348
PG02   4849.210055 -17273.275802 -18984.631795   -276.564720
PG03  -7303.359889 -19584.708423 -16617.961273    638.792936
PG04    -88.441866 -25717.448744   6324.895354    506.308859
PG05  -7370.495833  12921.181946  21827.647618   -197.958818
PG06 -25194.808826   4997.882728  -6940.527675    -92.543788
PG07 -12940.653500 -10953.463487  21078.173293    -13.962542
PG08   6073.667749 -25043.337432   5211.468550    453.226901
PG09  -7367.601583 -21421.908184  13720.111477    514.200759
PG10  22771.956542   8691.075104 -10718.747019   -261.476775
PG11 -22922.653309  12233.737904   5390.754370   -752.434648
PG12   2863.908261  19467.828495 -18152.229353   -562.322432
PG13 -13425.377086  19768.773265  11098.122692    692.278397
PG14 -22897.347126 -11502.341991  -7400.587473    573.051102
PG15  -2386.444845  25944.443541   4230.404470    247.359618
PG16  13515.048614  -7745.371197  21207.427205    -86.872397
PG17 -13746.874908  -6566.154526 -21327.354267    490.681165
PG18  14880.412459   8915.217140  20210.639854   -659.010924
PG19 -15888.789468   4136.820860 -20922.720168    581.831154
PG20 -18037.287783   5568.521571  18717.279580    367.356295
PG21  10979.019394 -17849.765268 -15234.633999     99.835257
PG22 -21190.064201  -5956.759460 -14252.826928    -90.311063
PG23  20352.346546  17053.531853   2715.584956    396.677303
PG24  -6113.332299  18602.939215 -18235.555864   -467.623673
PG25  15501.802526  19771.574194  -9376.230667    497.271378
PG26  21314.429412   -461.293448  15892.108362    -33.836444
PG27  12440.103892 -17932.712397  14517.064130    -33.506352
PG28  24648.925436  -4229.870068  -8966.460412   -526.009443
PG29   5431.157500  21688.289796  14199.420599   -550.342392
PG30 -22306.643969  -2349.502325  14582.201286   -247.148763
PG31  24901.666325  -9786.863785    167.496526   -218.658665
PG32  14956.897616   1558.551267 -21663.852271   -548.086731
PR01  -8497.623654 -23531.111943   4999.218172    109.996472
PR02 -11699.952707 -11863.013249  19332.299386    -38.733753
PR03  -9213.444697   7264.712360  22705.648046    114.343635
PR04  -1824.535292  21494.463322  13661.138127    271.087925
PR05   6440.684505  24550.362880  -2683.234924    143.198664
PR07   9098.399806  -7501.223383 -22569.111632     98.187876
PR08   1490.481553 -21660.000416 -13293.676350     -6.247300
PR09  24110.163106   7809.615952  -2462.039160    229.984546
PR11   8251.637505  -8707.001535  22513.691118      1.667120
PR12 -12487.042355 -12902.924088  18127.593667     49.188667
PR14 -21309.728889    836.383344 -14005.286330     27.546242
PR15  -6479.103080   9492.899505 -22761.161293     72.533444
PR16  12400.602089  12750.095981 -18267.209619     32.172631
PR17 -20125.672203  13647.562567  -7626.841323    154.280974
PR18 -15009.275679  18703.211628   8789.289368    180.110105
PR19  -4279.896870  15251.624309  19999.062879   -304.255717
PR20  13932.852934    857.018194  21353.984829   -124.142153
PR21  20257.850209 -12774.191491   8822.285567   -165.090178
PR22  14507.972848 -18513.555571  -9824.036144    -54.083060
PR24 -14580.192365    -46.731705 -20903.355669    -86.695959
PR26   2368.044782 -20565.738775 -14893.336405   -132.158270
*  2025 01 03 18 15  0.00000000
PG01   6036.197845 -17056.222816 -19437.979865     17.196883
PG02   6830.898315 -18202.463086 -17448.483532   -276.556559
PG03  -5655.447367 -18509.114192 -18404.605241    638.800060
PG04    227.859166 -26243.239175   3522.057368    506.314250
PG05  -9492.926356  11545.481966  21784.777132   -197.959819
PG06 -24382.032715   4479.745950  -9633.470175    -92.568526
PG07 -10832.253983 -11950.864738  21692.338885    -13.961890
PG08   6334.729064 -24247.958233   7934.958996    453.234287
PG09  -7047.177747 -22854.601267  11388.845738    514.214620
PG10  23574.650800   9449.903961  -8105.999256   -261.491127
PG11 -23431.450339  12176.611607   2569.599772   -752.434158
PG12   1165.991280  18219.148867 -19598.370879   -562.324447
PG13 -13275.739891  18315.770024  13487.516977    692.279571
PG14 -23289.415552 -12137.968157  -4705.859925    573.057709
PG15  -2755.593017  25261.614128   6949.275524    247.363645
PG16  15348.290780  -6109.990693  20534.472317    -86.863926
PG17 -13290.360648  -9018.324272 -20705.421785    490.665952
PG18  12744.425744   9902.458260  21169.233805   -659.009986
PG19 -15475.525100   1761.165061 -21599.751525    581.835319
PG20 -19814.579729   4555.541797  17106.275321    367.356024
PG21  12604.376336 -18467.722103 -13042.310878     99.836698
PG22 -22224.256660  -7160.054355 -11977.526306    -90.313011
PG23  19871.633414  16935.820885   5549.035329    396.684124
PG24  -7886.801583  19396.753443 -16575.603574   -467.620343
PG25  14417.559241  19300.978080 -11833.619318    497.270906
PG26  22685.948324    615.754621  13922.359206    -33.849845
PG27  12490.086829 -16078.940473  16509.305050    -33.505961
PG28  23698.575120  -3514.478369 -11486.841657   -526.018445
PG29   4978.364651  23134.176552  11893.462819   -550.339325
PG30 -20799.141918  -3263.689272  16502.306066   -247.141276
PG31  24893.181258  -9515.955106  -2648.981809   -218.657955
PG32  14728.296257   4066.116189 -21514.257089   -548.080751
PR01  -8761.646939 -23891.909802   1820.469667    109.997694
PR02 -12348.574359 -14029.433100  17367.991904    -38.733430
PR03  -9900.462867   4533.907120  23117.691973    114.344127
PR04  -2127.384211  19680.361426  16131.354060    271.089298
PR05   6654.842750  24635.454854    541.440514    143.199093
PR07   9787.013995  -4760.656388 -23024.740933     98.188619
PR08   1820.918113 -19877.741967 -15793.808705     -6.247374
PR09  23642.455114   7614.373878  -5601.176172    229.986602
PR11  10894.019802  -8052.604691  21614.204182      1.665312
PR12 -10242.332220 -12223.499069  19919.835077     49.189158
PR14 -22847.728162    538.507973 -11344.995439     27.546407
PR15  -9161.020044   8797.377414 -22110.695751     72.533149
PR16  10135.284583  12062.180111 -20047.625691     32.172972
PR17 -19200.385043  12979.731754 -10597.645564    154.284098
PR18 -15521.477262  19459.175463   5717.888795    180.111870
PR19  -5955.801487  16912.345972  18148.462605   -304.256857
PR20  11864.230194   2599.316282  22439.154818   -124.142583
PR21  19218.900030 -12026.757760  11720.889632   -165.092998
PR22  15180.828161 -19308.048758  -6830.652369    -54.084632
PR24 -12648.057579  -1869.994242 -22046.738391    -86.697280
PR26   2759.753869 -18615.824880 -17206.216525   -132.157903
EOF
